#dP2023  4 28  0  0  0.00000000      96 __u+U ITR00 EXT  IAC
## 2259 432000.00000000   900.00000000 60062 0.0000000000000
+  119   C06C07C08C09C10C11C12C13C14C16C19C20C21C22C23C24C25
+        C26C27C28C29C30C32C33C34C35C36C37C38C39C40C41C42C43
+        C44C45C46E01E02E03E04E05E07E08E09E10E11E12E13E14E15
+        E19E21E24E25E26E27E30E31E33E34E36G01G02G03G04G05G06
+        G07G08G09G10G11G12G13G14G15G16G17G18G19G20G21G22G23
+        G24G25G26G27G28G29G30G31G32J02J03J04R01R02R03R04R05
+        R07R08R09R11R12R13R14R15R16R17R18R19R20R21R22R24R25
++         0  0  0  0  0  0  0  0  0  0  0  0  0  0  0  0  0
++         0  0  0  0  0  0  0  0  0  0  0  0  0  0  0  0  0
++         0  0  0  0  0  0  0  0  0  0  0  0  0  0  0  0  0
++         0  0  0  0  0  0  0  0  0  0  0  0  0  0  0  0  0
++         0  0  0  0  0  0  0  0  0  0  0  0  0  0  0  0  0
++         0  0  0  0  0  0  0  0  0  0  0  0  0  0  0  0  0
++         0  0  0  0  0  0  0  0  0  0  0  0  0  0  0  0  0
%c M  cc GPS ccc cccc cccc cccc cccc ccccc ccccc ccccc ccccc
%c cc cc ccc ccc cccc cccc cccc cccc ccccc ccccc ccccc ccccc
%f  0.0000000  0.000000000  0.00000000000  0.000000000000000
%f  0.0000000  0.000000000  0.00000000000  0.000000000000000
%i    0    0    0    0      0      0      0      0         0
%i    0    0    0    0      0      0      0      0         0
/* IAC                                ULTRA-RAPID PREDICTION
/* S/V CLOCKS ARE ALIGNED TO GNSS TIME                      
/* G:C1WC2W R:C1PC2P E:C1XC5X C:C2IC6I J:C1CC2S             
/* PCV:IGS20_2247 OL/AL:FES2004  NONE     YN ORB:CoN CLK:CoN
*  2023 04 28 21 30  0.00000000
PC06 -13832.882220  24238.051420  31570.804436   -195.539957
PC07 -13045.247938  40191.075780   1015.706243     59.444777
PC08   1345.123030  29275.910754 -30241.793851    496.443918
PC09  -2728.301263  24742.727813  34420.972666    714.220543
PC10  -6971.767487  41401.987337  -5966.209816    -44.863049
PC11 -26691.384956   2135.991678   7949.794711    325.903268
PC12 -15301.854955 -10029.446597  21103.579014    602.871456
PC13   7165.095302  32852.778209 -25127.484172    263.118634
PC14 -16214.446761   1671.741080 -22636.045201    186.283882
PC16 -17392.515882  23332.088232  30640.486970     95.202116
PC19  16037.412454 -12359.754323  19221.476140   -904.975440
PC20  14259.442722   7549.253763  22790.650231    599.330431
PC21  -3667.823198 -24481.411018 -12831.193332   -911.726643
PC22   8673.392007 -26149.204273   4335.070965   -513.375481
PC23  -5263.429000  16515.994840  21872.614645   -915.801913
PC24 -22693.795282 -15317.390555   5445.790952   -115.975620
PC25 -19355.376099   2230.628210  19976.341565    115.978899
PC26 -13683.408833 -21920.969948 -10591.967772   -112.863493
PC27   6728.047928  14563.246065 -22858.298637    132.470511
PC28 -12615.744917  17075.577477 -18111.314886     97.767420
PC29  25935.459547 -10203.003460   1459.168303    113.357685
PC30  22859.126483   3544.864963 -15637.996151      0.116326
PC32   3844.532446  24514.829652  12806.950185   -570.793528
PC33 -15979.446711  12426.507971 -19209.622860   -876.550208
PC34 -23582.562919  -2644.291098  14648.853329    159.164980
PC35  12844.187335 -17505.483529  17539.732343    637.482187
PC36  19781.013066  -1107.459880 -19628.709539   -472.945479
PC37  12135.600992  22268.251379  11633.539600   -786.288489
PC38  -6857.700333  25295.060456 -32964.961923     74.866592
PC39 -22444.245181  23161.725346  27097.359703     -2.732867
PC40 -19008.557766  37659.105431   3049.511551    -21.676600
PC41  -8906.475389  25988.856640  -4883.686157   -910.196839
PC42 -13828.733663  -8959.945209 -22468.591637   -715.468970
PC43 -26158.830630   9658.346200   -680.134325     18.918068
PC44  -7044.434681 -14521.219746  22746.667333     90.364249
PC45   4734.676345 -16731.121960 -21830.892287    -90.949949
PC46  22953.461404  14222.781062  -6970.339620    -50.291888
PE01  12540.499009 -13683.924639 -23061.357382      9.872079
PE02 -12297.080420  14140.893960  22902.251013     35.074605
PE03 -21885.624403  19703.805306  -3064.987525   -673.798802
PE04   9038.610228 -24155.578199 -14509.631552   -110.761017
PE05 -22166.371843   3515.864648 -19291.805833    -72.382737
PE07   9271.576578  14688.332501  23981.022148    -41.128169
PE08  -9284.703381  24162.176484  14378.103801    -74.788954
PE09  -9051.957134 -14686.150121 -24042.357682      3.408515
PE10 -10261.698436 -16986.265842  21951.032774   -529.879277
PE11 -20529.437049 -15063.205732  15062.458597   1758.848165
PE12    772.364612 -16268.924755  24708.217001   -517.234866
PE13  19918.423217  15241.922197 -15731.493470    -18.920944
PE14 -15467.182283  -7398.808594  18672.663457    210.286867
PE15  -1089.524997  16131.461522 -24793.318166    -17.918399
PE19  22820.951630 -17992.925264   5638.451559  -2656.461141
PE21  17984.199328   6525.258576 -22590.561570   -526.071448
PE24 -13174.795083 -25120.144083   8480.372678    -69.886740
PE25 -18001.368430  -6908.447241  22460.790534   -604.144532
PE26  29010.242095   4963.018801   3186.894322     88.840126
PE27  13622.515840  24611.129554  -9201.998808    -36.526979
PE30    760.530597  27857.365790   9947.706085   -130.511886
PE31  -1288.387961 -28018.160069  -9461.420327   -522.544151
PE33  21307.972228  -7482.657053  19143.259299   -445.258735
PE34 -21158.734365   7628.328899 -19251.439235    -42.657728
PE36 -28987.013851  -5438.624591  -2425.473350    -48.294992
PG01  19455.306757  14257.363182 -11845.963822    189.422632
PG02 -23847.827064   2579.101107 -10749.127498   -601.486568
PG03  12723.057914  20402.665467  11289.236622   -317.735737
PG04  12116.791330   9445.018730  21686.345495     28.231159
PG05  -4631.077874 -25760.354641   3947.074263   -125.182437
PG06  17762.898078  -7272.418559  18464.367329    587.898150
PG07  25913.220168   6705.791221  -1362.855442    190.746713
PG08   1382.093508  17956.241166 -19459.696817   -119.966259
PG09  19267.950869  -1015.067720  18199.798803   -170.233155
PG10 -12625.910231   8941.364345 -21365.688349    -34.769727
PG11   3129.839219 -14880.368909  21787.439693   -178.267641
PG12 -10123.131027 -22800.852901   8958.078242   -369.597385
PG13   7583.678739 -19402.150948 -16532.079109    512.461571
PG14  14523.991235  -5708.197464 -21472.617154     39.599287
PG15  -4352.503092 -17862.081123 -19538.599148     34.793915
PG16   -672.087241  25442.693708   6404.969536   -505.339098
PG17  22240.154368 -12828.199161  -6583.328198    712.679880
PG18 -25717.215753  -4129.086200  -5595.053644   -244.178848
PG19  20248.528436 -16843.008012   1558.512992    309.857446
PG20    437.797731 -23140.705715  13240.778964    436.459080
PG21  13284.106167  15011.568921 -17279.860239    154.055033
PG22 -17686.167711  19060.766298   5413.385103    472.320808
PG23 -15898.458561  -4435.748041 -20836.343139     20.141463
PG24 -16554.626657 -14817.381078 -15210.037522   -169.316849
PG25 -15587.723204 -13440.680257  16619.627647    439.035873
PG26  -7388.137806  18669.273431  17100.950655    241.372128
PG27  -9430.955424  21207.015987 -12771.578735     48.749741
PG28 -19180.897356   7211.214920  16869.999155     71.759550
PG29 -17085.719926  -3503.941754  20002.489998   -597.403077
PG30  23514.162965  -2288.501522 -12284.675246   -520.033409
PG31 -11470.585512  11774.972998  20778.293154   -214.997314
PG32 -20836.101248  15539.462554  -4745.347651   -463.464785
PJ02 -25804.970917  25823.829323  26029.550474     -1.691407
PJ03 -33579.680666  17106.917339 -14237.490869      3.109183
PJ04 -21643.674660  31908.241522 -11996.264103     94.302195
PR01  13073.267591 -18752.694296  11308.553243     27.544576
PR02   6518.780291 -23649.566290  -7054.364949    -22.915615
PR03  -4296.244517 -14690.421634 -20370.698539     76.854004
PR04 -12224.979295   2260.243723 -22236.953297    185.127997
PR05 -13717.998096  17856.301794 -11948.010883    111.698663
PR07   4857.331860  13904.164180  20859.678186     54.802324
PR08  12416.876961  -2490.512143  22211.077951    -70.574107
PR09   5558.818076  19321.237603  15766.105124    117.255865
PR11  17457.627171  10330.048004 -15466.952741    -45.090904
PR12   8438.313147  -7077.118659 -22984.576604     26.809620
PR13  -4042.576423 -18411.523929 -17201.188125    -34.484458
PR14 -15829.929019 -19986.962926    315.472432     24.606857
PR15 -17177.257133  -9411.192073  16355.713049     89.519044
PR16  -8501.350400   6775.065194  23083.232716     14.010900
PR17 -14387.279748  -7301.361406  19772.406335    625.306730
PR18 -24631.072327   -175.261447   6528.305559     78.865990
PR19 -23165.565058   5912.809697  -8893.691988   -230.718690
PR20  -5728.410134  10500.929099 -22519.078887    -91.981477
PR21  15726.329651   6760.661753 -18907.580860     -3.511391
PR22  24901.179273    661.156799  -5512.695711     81.394004
PR24   4663.687225 -11151.983374  22471.944902    165.826102
PR25  13837.156128   8291.584489 -19752.613852     64.839005
EOF
